{
    "locations": [
        {
            "locationId": "1359",
            "publicName": "Broome",
            "latitude": "-17.9520713",
            "longitude": "122.22619690000001",
            "postcode": "6725"
        },
        {
            "locationId": "1049",
            "publicName": "Darwin",
            "latitude": "-12.376150000000001",
            "longitude": "130.881079",
            "postcode": "810"
        },
        {
            "locationId": "1225",
            "publicName": "Coolalinga",
            "latitude": "-12.520862899999999",
            "longitude": "131.04098060000001",
            "postcode": "839"
        },
        {
            "locationId": "3307",
            "publicName": "Katherine K Hub",
            "latitude": "-14.462982",
            "longitude": "132.26843299999999",
            "postcode": "850"
        },
        {
            "locationId": "3347",
            "publicName": "Port Douglas K Hub",
            "latitude": "-16.481901000000001",
            "longitude": "145.462827",
            "postcode": "4877"
        },
        {
            "locationId": "1149",
            "publicName": "Smithfield",
            "latitude": "-16.837067999999999",
            "longitude": "145.69223199999999",
            "postcode": "4870"
        },
        {
            "locationId": "1383",
            "publicName": "Cairns",
            "latitude": "-16.925176962430324",
            "longitude": "145.77208269663564",
            "postcode": "4870"
        },
        {
            "locationId": "1203",
            "publicName": "Mt Sheridan",
            "latitude": "-16.989149000000001",
            "longitude": "145.74042499999996",
            "postcode": "4868"
        },
        {
            "locationId": "3335",
            "publicName": "Mareeba K Hub",
            "latitude": "-16.997723000000001",
            "longitude": "145.42460399999999",
            "postcode": "4880"
        },
        {
            "locationId": "1176",
            "publicName": "Innisfail",
            "latitude": "-17.527856",
            "longitude": "146.02851000000001",
            "postcode": "4860"
        },
        {
            "locationId": "3338",
            "publicName": "Ingham K Hub",
            "latitude": "-18.650836999999999",
            "longitude": "146.1533",
            "postcode": "4850"
        },
        {
            "locationId": "1056",
            "publicName": "Mackay",
            "latitude": "-21.119572909114101",
            "longitude": "149.159231185913",
            "postcode": "4740"
        },
        {
            "locationId": "3314",
            "publicName": "Bowen K Hub",
            "latitude": "-20.01491",
            "longitude": "148.24458999999999",
            "postcode": "4805"
        },
        {
            "locationId": "3306",
            "publicName": "Sarina K Hub",
            "latitude": "-21.416637000000001",
            "longitude": "149.21765199999999",
            "postcode": "4737"
        },
        {
            "locationId": "3331",
            "publicName": "Ayr K Hub",
            "latitude": "-19.569669000000001",
            "longitude": "147.41100299999999",
            "postcode": "4807"
        },
        {
            "locationId": "1239",
            "publicName": "Fairfield Central",
            "latitude": "-19.315594000000001",
            "longitude": "146.81737999999996",
            "postcode": "4811"
        },
        {
            "locationId": "1034",
            "publicName": "Townsville",
            "latitude": "-19.297733000000001",
            "longitude": "146.760942",
            "postcode": "4810"
        },
        {
            "locationId": "1202",
            "publicName": "Rockhampton",
            "latitude": "-23.356715916487001",
            "longitude": "150.521922111511",
            "postcode": "4701"
        },
        {
            "locationId": "1132",
            "publicName": "Gladstone",
            "latitude": "-23.870173999999999",
            "longitude": "151.24172099999998",
            "postcode": "4680"
        },
        {
            "locationId": "1119",
            "publicName": "Karratha",
            "latitude": "-20.735765000000001",
            "longitude": "116.846478",
            "postcode": "6714"
        },
        {
            "locationId": "1103",
            "publicName": "South Hedland",
            "latitude": "-20.410176",
            "longitude": "118.600522",
            "postcode": "6722"
        },
        {
            "locationId": "1025",
            "publicName": "Mt Isa",
            "latitude": "-20.725895999999999",
            "longitude": "139.495057",
            "postcode": "4825"
        },
        {
            "locationId": "1104",
            "publicName": "Alice Springs",
            "latitude": "-23.700417000000002",
            "longitude": "133.87815699999999",
            "postcode": "870"
        },
        {
            "locationId": "3326",
            "publicName": "Charters Towers K Hub",
            "latitude": "-20.076865000000002",
            "longitude": "146.266347",
            "postcode": "4820"
        },
        {
            "locationId": "1135",
            "publicName": "Bundaberg",
            "latitude": "-24.87171",
            "longitude": "152.34905599999999",
            "postcode": "4670"
        },
        {
            "locationId": "1184",
            "publicName": "Hervey Bay",
            "latitude": "-25.290361000000001",
            "longitude": "152.83494199999996",
            "postcode": "4655"
        },
        {
            "locationId": "3329",
            "publicName": "Gympie K Hub",
            "latitude": "-26.188329",
            "longitude": "152.66177099999999",
            "postcode": "4570"
        },
        {
            "locationId": "3346",
            "publicName": "Noosa Junction K Hub",
            "latitude": "-26.397355999999998",
            "longitude": "153.08989",
            "postcode": "4567"
        },
        {
            "locationId": "3312",
            "publicName": "Chinchilla K Hub",
            "latitude": "-26.740707",
            "longitude": "150.622535",
            "postcode": "4413"
        },
        {
            "locationId": "1060",
            "publicName": "Maroochydore",
            "latitude": "-26.654025000000001",
            "longitude": "153.088514",
            "postcode": "4558"
        },
        {
            "locationId": "3311",
            "publicName": "Beerwah K Hub",
            "latitude": "-26.856919999999999",
            "longitude": "152.957763",
            "postcode": "4519"
        },
        {
            "locationId": "1365",
            "publicName": "Broken Hill",
            "latitude": "-31.96540397522843",
            "longitude": "141.45574665826092",
            "postcode": "2880"
        },
        {
            "locationId": "3319",
            "publicName": "Roma K Hub",
            "latitude": "-26.571840999999999",
            "longitude": "148.79091",
            "postcode": "4455"
        },
        {
            "locationId": "3321",
            "publicName": "Port Augusta K Hub",
            "latitude": "-32.490971899999998",
            "longitude": "137.75913259999999",
            "postcode": "5700"
        },
        {
            "locationId": "1287",
            "publicName": "Geraldton",
            "latitude": "-28.76717567",
            "longitude": "114.616844177",
            "postcode": "6530"
        },
        {
            "locationId": "1356",
            "publicName": "Kmart Ocean Keys",
            "latitude": "-31.6912746",
            "longitude": "115.7158731",
            "postcode": "6030"
        },
        {
            "locationId": "1143",
            "publicName": "Joondalup",
            "latitude": "-31.743074",
            "longitude": "115.765653",
            "postcode": "6027"
        },
        {
            "locationId": "1395",
            "publicName": "Wanneroo",
            "latitude": "-31.752528867964401",
            "longitude": "115.80471754074101",
            "postcode": "6065"
        },
        {
            "locationId": "1374",
            "publicName": "Whitford City",
            "latitude": "-31.797426000000002",
            "longitude": "115.745648",
            "postcode": "6025"
        },
        {
            "locationId": "1133",
            "publicName": "Caloundra",
            "latitude": "-26.802513999999999",
            "longitude": "153.125112",
            "postcode": "4551"
        },
        {
            "locationId": "1150",
            "publicName": "Morayfield",
            "latitude": "-27.103781000000001",
            "longitude": "152.95020700000001",
            "postcode": "4506"
        },
        {
            "locationId": "1027",
            "publicName": "Kippa Ring",
            "latitude": "-27.225641",
            "longitude": "153.08755099999999",
            "postcode": "4020"
        },
        {
            "locationId": "1254",
            "publicName": "Burpengary",
            "latitude": "-27.155193499999999",
            "longitude": "152.97492260000001",
            "postcode": "4505"
        },
        {
            "locationId": "3340",
            "publicName": "Dalby K Hub",
            "latitude": "-27.183571000000001",
            "longitude": "151.26341600000001",
            "postcode": "4405"
        },
        {
            "locationId": "3315",
            "publicName": "Goondiwindi K Hub",
            "latitude": "-28.550846",
            "longitude": "150.321541",
            "postcode": "4390"
        },
        {
            "locationId": "1237",
            "publicName": "Toowoomba Grand Central",
            "latitude": "-27.562120100000001",
            "longitude": "151.9497715",
            "postcode": "4350"
        },
        {
            "locationId": "1029",
            "publicName": "Toowoomba Plaza",
            "latitude": "-27.595542999999999",
            "longitude": "151.94922200000002",
            "postcode": "4350"
        },
        {
            "locationId": "3348",
            "publicName": "Gatton K Hub",
            "latitude": "-27.558613000000001",
            "longitude": "152.27736400000001",
            "postcode": "4343"
        },
        {
            "locationId": "1228",
            "publicName": "North Lakes",
            "latitude": "-27.239970100000001",
            "longitude": "153.01621509999995",
            "postcode": "4509"
        },
        {
            "locationId": "1218",
            "publicName": "Aspley",
            "latitude": "-27.362082000000001",
            "longitude": "153.01398100000006",
            "postcode": "4034"
        },
        {
            "locationId": "1031",
            "publicName": "Arana Hills",
            "latitude": "-27.399076999999998",
            "longitude": "152.95905400000001",
            "postcode": "4054"
        },
        {
            "locationId": "1352",
            "publicName": "Kalgoorlie",
            "latitude": "-30.749357",
            "longitude": "121.4713933",
            "postcode": "6430"
        },
        {
            "locationId": "3341",
            "publicName": "Northam K Hub",
            "latitude": "-31.653616",
            "longitude": "116.671555",
            "postcode": "6401"
        },
        {
            "locationId": "1282",
            "publicName": "Ellenbrook",
            "latitude": "-31.782888",
            "longitude": "115.969751",
            "postcode": "6069"
        },
        {
            "locationId": "1052",
            "publicName": "Midland",
            "latitude": "-31.889817000000001",
            "longitude": "116.010328",
            "postcode": "6056"
        },
        {
            "locationId": "1358",
            "publicName": "Whyalla",
            "latitude": "-33.027669500000002",
            "longitude": "137.5294993",
            "postcode": "5608"
        },
        {
            "locationId": "1059",
            "publicName": "Port Pirie",
            "latitude": "-33.191687000000002",
            "longitude": "138.006958",
            "postcode": "5540"
        },
        {
            "locationId": "1175",
            "publicName": "Port Lincoln",
            "latitude": "-34.725988999999998",
            "longitude": "135.86370700000001",
            "postcode": "5606"
        },
        {
            "locationId": "3360",
            "publicName": "Kadina K Hub",
            "latitude": "-33.965947800000002",
            "longitude": "137.71412509999999",
            "postcode": "5554"
        },
        {
            "locationId": "1159",
            "publicName": "Chermside",
            "latitude": "-27.384156999999998",
            "longitude": "153.03235700000002",
            "postcode": "4032"
        },
        {
            "locationId": "1275",
            "publicName": "Stafford",
            "latitude": "-27.411309500000002",
            "longitude": "153.01019669999999",
            "postcode": "4053"
        },
        {
            "locationId": "1062",
            "publicName": "Toombul",
            "latitude": "-27.409146",
            "longitude": "153.06122699999997",
            "postcode": "4012"
        },
        {
            "locationId": "1063",
            "publicName": "Wynnum",
            "latitude": "-27.456367",
            "longitude": "153.15537699999999",
            "postcode": "4178"
        },
        {
            "locationId": "1013",
            "publicName": "Cannon Hill",
            "latitude": "-27.471461999999999",
            "longitude": "153.09833200000003",
            "postcode": "4170"
        },
        {
            "locationId": "1178",
            "publicName": "Ipswich",
            "latitude": "-27.609009",
            "longitude": "152.76134900000002",
            "postcode": "4305"
        },
        {
            "locationId": "1283",
            "publicName": "Yamanto",
            "latitude": "-27.660450000000001",
            "longitude": "152.74194",
            "postcode": "4305"
        },
        {
            "locationId": "1108",
            "publicName": "Redbank",
            "latitude": "-27.605316999999999",
            "longitude": "152.86801200000002",
            "postcode": "4301"
        },
        {
            "locationId": "1124",
            "publicName": "Toowong",
            "latitude": "-27.485064999999999",
            "longitude": "152.99181099999998",
            "postcode": "4066"
        },
        {
            "locationId": "1217",
            "publicName": "Indooroopilly",
            "latitude": "-27.499399",
            "longitude": "152.97279400000002",
            "postcode": "4068"
        },
        {
            "locationId": "1285",
            "publicName": "Carindale",
            "latitude": "-27.503220500000001",
            "longitude": "153.10081729999999",
            "postcode": "4152"
        },
        {
            "locationId": "1067",
            "publicName": "Capalaba",
            "latitude": "-27.524787",
            "longitude": "153.19112799999999",
            "postcode": "4157"
        },
        {
            "locationId": "1177",
            "publicName": "Victoria Point",
            "latitude": "-27.586995999999999",
            "longitude": "153.28075100000001",
            "postcode": "4165"
        },
        {
            "locationId": "1140",
            "publicName": "Loganholme",
            "latitude": "-27.660413999999999",
            "longitude": "153.17183700000001",
            "postcode": "4129"
        },
        {
            "locationId": "1232",
            "publicName": "Mt Gravatt",
            "latitude": "-27.562583499999999",
            "longitude": "153.08425009999996",
            "postcode": "4122"
        },
        {
            "locationId": "1047",
            "publicName": "Mt Ommaney",
            "latitude": "-27.549647",
            "longitude": "152.93894",
            "postcode": "4074"
        },
        {
            "locationId": "1258",
            "publicName": "Coomera",
            "latitude": "-27.853795999999999",
            "longitude": "153.31477599999999",
            "postcode": "4209"
        },
        {
            "locationId": "1101",
            "publicName": "Southport",
            "latitude": "-27.96893",
            "longitude": "153.41614200000001",
            "postcode": "4215"
        },
        {
            "locationId": "1230",
            "publicName": "Oxenford",
            "latitude": "-27.8890648",
            "longitude": "153.3122128",
            "postcode": "4210"
        },
        {
            "locationId": "1179",
            "publicName": "Helensvale",
            "latitude": "-27.925725",
            "longitude": "153.33618200000001",
            "postcode": "4212"
        },
        {
            "locationId": "1032",
            "publicName": "Broadbeach",
            "latitude": "-28.036131999999998",
            "longitude": "153.42909300000002",
            "postcode": "4218"
        },
        {
            "locationId": "1363",
            "publicName": "Forest Lake",
            "latitude": "-27.625435924550494",
            "longitude": "152.96823587989718",
            "postcode": "4078"
        },
        {
            "locationId": "1219",
            "publicName": "Calamvale",
            "latitude": "-27.610520259097267",
            "longitude": "153.05539542778627",
            "postcode": "4109"
        },
        {
            "locationId": "1017",
            "publicName": "Sunnybank",
            "latitude": "-27.571386",
            "longitude": "153.06358799999998",
            "postcode": "4109"
        },
        {
            "locationId": "1033",
            "publicName": "Woodridge",
            "latitude": "-27.643028999999999",
            "longitude": "153.11428699999999",
            "postcode": "4114"
        },
        {
            "locationId": "1186",
            "publicName": "Browns Plains",
            "latitude": "-27.662559000000002",
            "longitude": "153.03996899999999",
            "postcode": "4118"
        },
        {
            "locationId": "3318",
            "publicName": "Warwick K Hub",
            "latitude": "-28.216137",
            "longitude": "152.03071600000001",
            "postcode": "4370"
        },
        {
            "locationId": "1148",
            "publicName": "Robina",
            "latitude": "-28.077238000000001",
            "longitude": "153.387021",
            "postcode": "4226"
        },
        {
            "locationId": "1125",
            "publicName": "The Pines",
            "latitude": "-28.135031000000001",
            "longitude": "153.469211",
            "postcode": "4221"
        },
        {
            "locationId": "1074",
            "publicName": "Tweed Heads",
            "latitude": "-28.199743000000002",
            "longitude": "153.54528500000001",
            "postcode": "2486"
        },
        {
            "locationId": "3354",
            "publicName": "Ocean Shores K Hub",
            "latitude": "-28.523519",
            "longitude": "153.546043",
            "postcode": "2483"
        },
        {
            "locationId": "3343",
            "publicName": "Stanthorpe K Hub",
            "latitude": "-28.655995000000001",
            "longitude": "151.93382700000001",
            "postcode": "4380"
        },
        {
            "locationId": "1050",
            "publicName": "Lismore",
            "latitude": "-28.810167",
            "longitude": "153.28674599999999",
            "postcode": "2480"
        },
        {
            "locationId": "1102",
            "publicName": "Ballina",
            "latitude": "-28.859570999999999",
            "longitude": "153.55898100000002",
            "postcode": "2478"
        },
        {
            "locationId": "3351",
            "publicName": "Yamba K Hub",
            "latitude": "-29.428913999999999",
            "longitude": "153.32676699999999",
            "postcode": "2464"
        },
        {
            "locationId": "3345",
            "publicName": "Moree K Hub",
            "latitude": "-29.460999999999999",
            "longitude": "149.84161",
            "postcode": "2400"
        },
        {
            "locationId": "1320",
            "publicName": "Armidale",
            "latitude": "-30.511417999999999",
            "longitude": "151.66265100000001",
            "postcode": "2350"
        },
        {
            "locationId": "3313",
            "publicName": "Gunnedah K Hub",
            "latitude": "-30.97578628497995",
            "longitude": "150.25362786930853",
            "postcode": "2380"
        },
        {
            "locationId": "1072",
            "publicName": "Tamworth",
            "latitude": "-31.092070826260517",
            "longitude": "150.93221820792573",
            "postcode": "2340"
        },
        {
            "locationId": "1357",
            "publicName": "Dubbo",
            "latitude": "-32.2501593",
            "longitude": "148.59578149999999",
            "postcode": "2830"
        },
        {
            "locationId": "1260",
            "publicName": "Coffs Harbour",
            "latitude": "-30.187559425838511",
            "longitude": "153.03613109953238",
            "postcode": "2450"
        },
        {
            "locationId": "1397",
            "publicName": "Toormina",
            "latitude": "-30.3538052746561",
            "longitude": "153.09173583984401",
            "postcode": "2452"
        },
        {
            "locationId": "1231",
            "publicName": "Port Macquarie",
            "latitude": "-31.429320700000002",
            "longitude": "152.89833859999999",
            "postcode": "2444"
        },
        {
            "locationId": "1087",
            "publicName": "Forster South",
            "latitude": "-32.199987",
            "longitude": "152.52062799999999",
            "postcode": "2428"
        },
        {
            "locationId": "1165",
            "publicName": "Salamander Bay",
            "latitude": "-32.736221999999998",
            "longitude": "152.10716500000001",
            "postcode": "2317"
        },
        {
            "locationId": "3355",
            "publicName": "Forbes K Hub",
            "latitude": "-33.383352249103815",
            "longitude": "148.00859765558013",
            "postcode": "2871"
        },
        {
            "locationId": "1280",
            "publicName": "Griffith",
            "latitude": "-34.3943327",
            "longitude": "145.93460110000001",
            "postcode": "2680"
        },
        {
            "locationId": "1046",
            "publicName": "Orange",
            "latitude": "-33.282530000000001",
            "longitude": "149.10012600000002",
            "postcode": "2800"
        },
        {
            "locationId": "3330",
            "publicName": "Mudgee K Hub",
            "latitude": "-32.598590000000002",
            "longitude": "149.58926",
            "postcode": "2850"
        },
        {
            "locationId": "1360",
            "publicName": "Bathurst",
            "latitude": "-33.418351700000002",
            "longitude": "149.58273610000001",
            "postcode": "2795"
        },
        {
            "locationId": "1054",
            "publicName": "Wagga Wagga",
            "latitude": "-35.113525000000003",
            "longitude": "147.37067999999999",
            "postcode": "2650"
        },
        {
            "locationId": "1113",
            "publicName": "Maitland",
            "latitude": "-32.732861999999997",
            "longitude": "151.556119",
            "postcode": "2320"
        },
        {
            "locationId": "1351",
            "publicName": "Green Hills",
            "latitude": "-32.7615999",
            "longitude": "151.59165780000001",
            "postcode": "2323"
        },
        {
            "locationId": "1182",
            "publicName": "Glendale",
            "latitude": "-32.933525000000003",
            "longitude": "151.64105999999998",
            "postcode": "2285"
        },
        {
            "locationId": "1006",
            "publicName": "Waratah",
            "latitude": "-32.907342348671314",
            "longitude": "151.72533328437805",
            "postcode": "2298"
        },
        {
            "locationId": "1279",
            "publicName": "Kotara",
            "latitude": "-32.942751199999996",
            "longitude": "151.71100329999999",
            "postcode": "2289"
        },
        {
            "locationId": "1022",
            "publicName": "Warwick",
            "latitude": "-31.843848196748922",
            "longitude": "115.8102364034271",
            "postcode": "6024"
        },
        {
            "locationId": "1139",
            "publicName": "Innaloo",
            "latitude": "-31.901382000000002",
            "longitude": "115.79840600000001",
            "postcode": "6018"
        },
        {
            "locationId": "1142",
            "publicName": "Mirrabooka",
            "latitude": "-31.871558",
            "longitude": "115.862443",
            "postcode": "6061"
        },
        {
            "locationId": "1004",
            "publicName": "Morley",
            "latitude": "-31.896991",
            "longitude": "115.899636",
            "postcode": "6062"
        },
        {
            "locationId": "1386",
            "publicName": "Perth Cbd",
            "latitude": "-31.954096",
            "longitude": "115.85865",
            "postcode": "6000"
        },
        {
            "locationId": "1278",
            "publicName": "East Victoria Park",
            "latitude": "-31.984240199999999",
            "longitude": "115.90165769999999",
            "postcode": "6101"
        },
        {
            "locationId": "1018",
            "publicName": "Belmont",
            "latitude": "-31.965461999999999",
            "longitude": "115.934394",
            "postcode": "6104"
        },
        {
            "locationId": "1158",
            "publicName": "Carousel",
            "latitude": "-32.018751999999999",
            "longitude": "115.936548",
            "postcode": "6017"
        },
        {
            "locationId": "1057",
            "publicName": "Maddington",
            "latitude": "-32.053238999999998",
            "longitude": "115.978256",
            "postcode": "6109"
        },
        {
            "locationId": "1024",
            "publicName": "Kardinya",
            "latitude": "-32.068100000000001",
            "longitude": "115.81618400000001",
            "postcode": "6163"
        },
        {
            "locationId": "1162",
            "publicName": "Booragoon",
            "latitude": "-32.035466",
            "longitude": "115.83676800000001",
            "postcode": "6154"
        },
        {
            "locationId": "1039",
            "publicName": "Rockingham",
            "latitude": "-32.290146",
            "longitude": "115.7441",
            "postcode": "6168"
        },
        {
            "locationId": "1096",
            "publicName": "Armadale",
            "latitude": "-32.152802000000001",
            "longitude": "116.015535",
            "postcode": "6112"
        },
        {
            "locationId": "1362",
            "publicName": "Cockburn Gateway",
            "latitude": "-32.130567999999997",
            "longitude": "115.8538296",
            "postcode": "6164"
        },
        {
            "locationId": "1244",
            "publicName": "Halls Head",
            "latitude": "-32.548906299999999",
            "longitude": "115.70342089999997",
            "postcode": "6210"
        },
        {
            "locationId": "1257",
            "publicName": "Lakelands",
            "latitude": "-32.469225700000003",
            "longitude": "115.76350509999997",
            "postcode": "6180"
        },
        {
            "locationId": "1088",
            "publicName": "Mandurah",
            "latitude": "-32.535688999999998",
            "longitude": "115.743117",
            "postcode": "6210"
        },
        {
            "locationId": "1229",
            "publicName": "Baldivis",
            "latitude": "-32.332793799999997",
            "longitude": "115.81420159999993",
            "postcode": "6171"
        },
        {
            "locationId": "3325",
            "publicName": "Esperance K Hub",
            "latitude": "-33.858997000000002",
            "longitude": "121.89014400000001",
            "postcode": "6450"
        },
        {
            "locationId": "1166",
            "publicName": "Albany",
            "latitude": "-35.019682000000003",
            "longitude": "117.882324",
            "postcode": "6330"
        },
        {
            "locationId": "1241",
            "publicName": "Busselton",
            "latitude": "-33.655203399999998",
            "longitude": "115.33973140000001",
            "postcode": "6280"
        },
        {
            "locationId": "1187",
            "publicName": "Bunbury South",
            "latitude": "-33.360039",
            "longitude": "115.644679",
            "postcode": "6230"
        },
        {
            "locationId": "3320",
            "publicName": "Pinjarra K Hub",
            "latitude": "-32.629246000000002",
            "longitude": "115.87428300000001",
            "postcode": "6208"
        },
        {
            "locationId": "1235",
            "publicName": "Eaton Fair",
            "latitude": "-33.319770699999999",
            "longitude": "115.71970499999998",
            "postcode": "6232"
        },
        {
            "locationId": "1130",
            "publicName": "Gorokan",
            "latitude": "-33.240976882895765",
            "longitude": "151.50257535720581",
            "postcode": "2263"
        },
        {
            "locationId": "1377",
            "publicName": "Tuggerah",
            "latitude": "-33.307636218334643",
            "longitude": "151.41251825557777",
            "postcode": "2259"
        },
        {
            "locationId": "1098",
            "publicName": "Bateau Bay",
            "latitude": "-33.374749999999999",
            "longitude": "151.47310300000001",
            "postcode": "2261"
        },
        {
            "locationId": "1170",
            "publicName": "Munno Para",
            "latitude": "-34.688127000000001",
            "longitude": "138.68973800000001",
            "postcode": "5114"
        },
        {
            "locationId": "3310",
            "publicName": "Berri K Hub",
            "latitude": "-34.276161000000002",
            "longitude": "140.61028400000001",
            "postcode": "5343"
        },
        {
            "locationId": "1065",
            "publicName": "Mildura",
            "latitude": "-34.182357000000003",
            "longitude": "142.160709",
            "postcode": "3500"
        },
        {
            "locationId": "3350",
            "publicName": "Murray Bridge K Hub",
            "latitude": "-35.1218",
            "longitude": "139.27374",
            "postcode": "5253"
        },
        {
            "locationId": "1153",
            "publicName": "Tea Tree Plaza",
            "latitude": "-34.831356999999997",
            "longitude": "138.69147100000001",
            "postcode": "5092"
        },
        {
            "locationId": "3317",
            "publicName": "Katoomba K Hub",
            "latitude": "-33.715150000000001",
            "longitude": "150.30965",
            "postcode": "2780"
        },
        {
            "locationId": "3337",
            "publicName": "Windsor Khub",
            "latitude": "-33.607509999999998",
            "longitude": "150.81948",
            "postcode": "2756"
        },
        {
            "locationId": "1097",
            "publicName": "Penrith",
            "latitude": "-33.756948000000001",
            "longitude": "150.69348500000001",
            "postcode": "2750"
        },
        {
            "locationId": "1379",
            "publicName": "St Mary's",
            "latitude": "-33.766970000000001",
            "longitude": "150.7705",
            "postcode": "2760"
        },
        {
            "locationId": "1093",
            "publicName": "Mt Druitt",
            "latitude": "-33.767015000000001",
            "longitude": "150.81983299999999",
            "postcode": "2770"
        },
        {
            "locationId": "1380",
            "publicName": "Rouse Hill",
            "latitude": "-33.687840000000001",
            "longitude": "150.92608999999999",
            "postcode": "2155"
        },
        {
            "locationId": "1204",
            "publicName": "Erina",
            "latitude": "-33.4388546854669",
            "longitude": "151.38306140899701",
            "postcode": "2250"
        },
        {
            "locationId": "1099",
            "publicName": "Woy Woy",
            "latitude": "-33.488042999999998",
            "longitude": "151.32397",
            "postcode": "2256"
        },
        {
            "locationId": "1055",
            "publicName": "Warriewood",
            "latitude": "-33.694941999999998",
            "longitude": "151.29599300000001",
            "postcode": "2102"
        },
        {
            "locationId": "1378",
            "publicName": "Warringah Mall",
            "latitude": "-33.765538419618878",
            "longitude": "151.26600292916962",
            "postcode": "2100"
        },
        {
            "locationId": "1042",
            "publicName": "Hornsby",
            "latitude": "-33.703484000000003",
            "longitude": "151.10208600000001",
            "postcode": "2077"
        },
        {
            "locationId": "1079",
            "publicName": "Chatswood",
            "latitude": "-33.793984999999999",
            "longitude": "151.18586200000001",
            "postcode": "2067"
        },
        {
            "locationId": "1189",
            "publicName": "Stanhope Gardens",
            "latitude": "-33.718217000000003",
            "longitude": "150.92023800000001",
            "postcode": "2768"
        },
        {
            "locationId": "1246",
            "publicName": "Castle Hill",
            "latitude": "-33.730483900000003",
            "longitude": "151.00537209999993",
            "postcode": "2154"
        },
        {
            "locationId": "1002",
            "publicName": "Blacktown",
            "latitude": "-33.772238000000002",
            "longitude": "150.90651800000001",
            "postcode": "2148"
        },
        {
            "locationId": "1030",
            "publicName": "North Rocks",
            "latitude": "-33.768897000000003",
            "longitude": "151.02763399999998",
            "postcode": "2151"
        },
        {
            "locationId": "1368",
            "publicName": "Macquarie",
            "latitude": "-33.777509999999999",
            "longitude": "151.11812",
            "postcode": "2113"
        },
        {
            "locationId": "1146",
            "publicName": "Parramatta",
            "latitude": "-33.817408",
            "longitude": "151.00315499999999",
            "postcode": "2150"
        },
        {
            "locationId": "1354",
            "publicName": "Wetherill Park",
            "latitude": "-33.858378700000003",
            "longitude": "150.89885699999999",
            "postcode": "2164"
        },
        {
            "locationId": "1399",
            "publicName": "Merrylands",
            "latitude": "-33.834829999999997",
            "longitude": "150.98676999999998",
            "postcode": "2160"
        },
        {
            "locationId": "1251",
            "publicName": "Top Ryde",
            "latitude": "-33.809650202961762",
            "longitude": "151.10555116190187",
            "postcode": "2112"
        },
        {
            "locationId": "1364",
            "publicName": "Rhodes",
            "latitude": "-33.835377000000001",
            "longitude": "151.08512859999999",
            "postcode": "2138"
        },
        {
            "locationId": "1372",
            "publicName": "Westfield Bondi",
            "latitude": "-33.891438730259971",
            "longitude": "151.25076274785238",
            "postcode": "2022"
        },
        {
            "locationId": "1084",
            "publicName": "Bondi Eastgate",
            "latitude": "-33.892774000000003",
            "longitude": "151.24871200000001",
            "postcode": "2022"
        },
        {
            "locationId": "1155",
            "publicName": "Broadway",
            "latitude": "-33.883648000000001",
            "longitude": "151.19466499999999",
            "postcode": "2007"
        },
        {
            "locationId": "1208",
            "publicName": "Narellan",
            "latitude": "-34.041383600000003",
            "longitude": "150.737256",
            "postcode": "2567"
        },
        {
            "locationId": "1123",
            "publicName": "Casula",
            "latitude": "-33.947643999999997",
            "longitude": "150.89984299999998",
            "postcode": "2170"
        },
        {
            "locationId": "1376",
            "publicName": "Liverpool",
            "latitude": "-33.919017332489219",
            "longitude": "150.92270801643468",
            "postcode": "2170"
        },
        {
            "locationId": "1077",
            "publicName": "Fairfield",
            "latitude": "-33.867410999999997",
            "longitude": "150.95216600000001",
            "postcode": "2165"
        },
        {
            "locationId": "1242",
            "publicName": "Bass Hill",
            "latitude": "-33.899748000000002",
            "longitude": "150.99315999999999",
            "postcode": "2197"
        },
        {
            "locationId": "1058",
            "publicName": "Bankstown",
            "latitude": "-33.915996999999997",
            "longitude": "151.03880600000002",
            "postcode": "2200"
        },
        {
            "locationId": "1076",
            "publicName": "Ashfield",
            "latitude": "-33.889237000000001",
            "longitude": "151.12332700000002",
            "postcode": "2131"
        },
        {
            "locationId": "1160",
            "publicName": "Burwood NSW",
            "latitude": "-33.874597000000001",
            "longitude": "151.105694",
            "postcode": "2134"
        },
        {
            "locationId": "1367",
            "publicName": "Roselands",
            "latitude": "-33.935006727807384",
            "longitude": "151.06934338603173",
            "postcode": "2196"
        },
        {
            "locationId": "1131",
            "publicName": "Marrickville",
            "latitude": "-33.906405999999997",
            "longitude": "151.17215300000001",
            "postcode": "2204"
        },
        {
            "locationId": "1127",
            "publicName": "Pagewood",
            "latitude": "-33.944836000000002",
            "longitude": "151.224243",
            "postcode": "2019"
        },
        {
            "locationId": "1064",
            "publicName": "Goulburn",
            "latitude": "-34.752384599999999",
            "longitude": "149.72120179999999",
            "postcode": "2580"
        },
        {
            "locationId": "3305",
            "publicName": "Yass K Hub",
            "latitude": "-34.843600000000002",
            "longitude": "148.90988870000001",
            "postcode": "2582"
        },
        {
            "locationId": "3342",
            "publicName": "Bowral K Hub",
            "latitude": "-34.480049999999999",
            "longitude": "150.41650999999999",
            "postcode": "2576"
        },
        {
            "locationId": "3333",
            "publicName": "Picton K Hub",
            "latitude": "-34.168779999999998",
            "longitude": "150.61337",
            "postcode": "2571"
        },
        {
            "locationId": "1100",
            "publicName": "Campbelltown",
            "latitude": "-34.069237999999999",
            "longitude": "150.810641",
            "postcode": "2560"
        },
        {
            "locationId": "1227",
            "publicName": "Minto",
            "latitude": "-34.030334747716751",
            "longitude": "150.84999995239264",
            "postcode": "2566"
        },
        {
            "locationId": "1078",
            "publicName": "Sylvania",
            "latitude": "-34.010542999999998",
            "longitude": "151.10383000000002",
            "postcode": "2224"
        },
        {
            "locationId": "1371",
            "publicName": "Miranda",
            "latitude": "-34.035408926347998",
            "longitude": "151.10140927445187",
            "postcode": "2228"
        },
        {
            "locationId": "1141",
            "publicName": "Hurstville",
            "latitude": "-33.965884000000003",
            "longitude": "151.10603599999999",
            "postcode": "2220"
        },
        {
            "locationId": "1019",
            "publicName": "Figtree",
            "latitude": "-34.43582",
            "longitude": "150.862336",
            "postcode": "2525"
        },
        {
            "locationId": "1116",
            "publicName": "Port Adelaide",
            "latitude": "-34.848502000000003",
            "longitude": "138.50536399999999",
            "postcode": "5015"
        },
        {
            "locationId": "1021",
            "publicName": "West Lakes",
            "latitude": "-34.879489999999997",
            "longitude": "138.49060499999999",
            "postcode": "5021"
        },
        {
            "locationId": "1213",
            "publicName": "Shellharbour",
            "latitude": "-34.564644574067202",
            "longitude": "150.83961641460564",
            "postcode": "2529"
        },
        {
            "locationId": "1094",
            "publicName": "Nowra",
            "latitude": "-34.876740260597508",
            "longitude": "150.60647867857358",
            "postcode": "2541"
        },
        {
            "locationId": "1003",
            "publicName": "Ingle Farm",
            "latitude": "-34.829267999999999",
            "longitude": "138.648022",
            "postcode": "5098"
        },
        {
            "locationId": "1223",
            "publicName": "Churchill",
            "latitude": "-34.861080627571489",
            "longitude": "138.58275424841008",
            "postcode": "5084"
        },
        {
            "locationId": "1012",
            "publicName": "Firle",
            "latitude": "-34.904997999999999",
            "longitude": "138.65589299999999",
            "postcode": "5070"
        },
        {
            "locationId": "1211",
            "publicName": "Rundle Mall",
            "latitude": "-34.922830900000001",
            "longitude": "138.60256140000001",
            "postcode": "5000"
        },
        {
            "locationId": "1005",
            "publicName": "Kurralta Park",
            "latitude": "-34.956353999999997",
            "longitude": "138.56571199999999",
            "postcode": "5037"
        },
        {
            "locationId": "3323",
            "publicName": "Tumut K Hub",
            "latitude": "-35.301259999999999",
            "longitude": "148.22085000000001",
            "postcode": "2720"
        },
        {
            "locationId": "1036",
            "publicName": "Belconnen",
            "latitude": "-35.237889000000003",
            "longitude": "149.065529",
            "postcode": "2617"
        },
        {
            "locationId": "1245",
            "publicName": "Gungahlin",
            "latitude": "-35.185251999999998",
            "longitude": "149.13412790000007",
            "postcode": "2912"
        },
        {
            "locationId": "1129",
            "publicName": "Tuggeranong",
            "latitude": "-35.416798999999997",
            "longitude": "149.06568199999998",
            "postcode": "2900"
        },
        {
            "locationId": "1210",
            "publicName": "Queanbeyan",
            "latitude": "-35.3506146",
            "longitude": "149.23165729999999",
            "postcode": "2620"
        },
        {
            "locationId": "1048",
            "publicName": "Noarlunga",
            "latitude": "-35.142055999999997",
            "longitude": "138.49571",
            "postcode": "5168"
        },
        {
            "locationId": "1151",
            "publicName": "Marion",
            "latitude": "-35.01641",
            "longitude": "138.54469599999999",
            "postcode": "5046"
        },
        {
            "locationId": "1167",
            "publicName": "Mt Barker ",
            "latitude": "-35.064404000000003",
            "longitude": "138.85986299999999",
            "postcode": "5251"
        },
        {
            "locationId": "3352",
            "publicName": "Swan Hill K Hub",
            "latitude": "-35.339179999999999",
            "longitude": "143.55815999999999",
            "postcode": "3585"
        },
        {
            "locationId": "1288",
            "publicName": "Echuca K Hub",
            "latitude": "-36.128453",
            "longitude": "144.75117800000001",
            "postcode": "3564"
        },
        {
            "locationId": "1291",
            "publicName": "Kyabram K Hub",
            "latitude": "-36.313217399999999",
            "longitude": "145.0450233",
            "postcode": "3620"
        },
        {
            "locationId": "1126",
            "publicName": "Horsham",
            "latitude": "-36.715575999999999",
            "longitude": "142.19616600000001",
            "postcode": "3400"
        },
        {
            "locationId": "1045",
            "publicName": "Bendigo",
            "latitude": "-36.809997000000003",
            "longitude": "144.241241",
            "postcode": "3555"
        },
        {
            "locationId": "1396",
            "publicName": "Maryborough",
            "latitude": "-37.048308587298493",
            "longitude": "143.74186052513102",
            "postcode": "3465"
        },
        {
            "locationId": "1289",
            "publicName": "Cobram K Hub",
            "latitude": "-35.919350999999999",
            "longitude": "145.64954700000001",
            "postcode": "3644"
        },
        {
            "locationId": "3344",
            "publicName": "Ulladulla K Hub",
            "latitude": "-35.359189999999998",
            "longitude": "150.47325000000001",
            "postcode": "2539"
        },
        {
            "locationId": "1169",
            "publicName": "Batemans Bay",
            "latitude": "-35.707769999999996",
            "longitude": "150.175129",
            "postcode": "2536"
        },
        {
            "locationId": "3328",
            "publicName": "Victor Harbor K Hub",
            "latitude": "-35.553749000000003",
            "longitude": "138.62142900000001",
            "postcode": "5211"
        },
        {
            "locationId": "3336",
            "publicName": "Yarrawonga K Hub",
            "latitude": "-36.014589999999998",
            "longitude": "146.00453999999999",
            "postcode": "3730"
        },
        {
            "locationId": "1110",
            "publicName": "Albury",
            "latitude": "-36.082000999999998",
            "longitude": "146.91357500000001",
            "postcode": "2640"
        },
        {
            "locationId": "1238",
            "publicName": "Wodonga",
            "latitude": "-36.123912699999998",
            "longitude": "146.88848970000004",
            "postcode": "3690"
        },
        {
            "locationId": "1089",
            "publicName": "Wangaratta",
            "latitude": "-36.359592999999997",
            "longitude": "146.316237",
            "postcode": "3677"
        },
        {
            "locationId": "1112",
            "publicName": "Shepparton",
            "latitude": "-36.382950000000001",
            "longitude": "145.401095",
            "postcode": "3630"
        },
        {
            "locationId": "3304",
            "publicName": "Bega K Hub",
            "latitude": "-36.674979999999998",
            "longitude": "149.84367399999999",
            "postcode": "2550"
        },
        {
            "locationId": "1290",
            "publicName": "Seymour K Hub",
            "latitude": "-37.024127",
            "longitude": "145.13381799999999",
            "postcode": "3660"
        },
        {
            "locationId": "3327",
            "publicName": "Mansfield K Hub",
            "latitude": "-37.052169999999997",
            "longitude": "146.08973",
            "postcode": "3722"
        },
        {
            "locationId": "3324",
            "publicName": "Hamilton K Hub",
            "latitude": "-37.743519999999997",
            "longitude": "142.02368000000001",
            "postcode": "3300"
        },
        {
            "locationId": "3316",
            "publicName": "Ararat K Hub",
            "latitude": "-37.283000000000001",
            "longitude": "142.92901000000001",
            "postcode": "3377"
        },
        {
            "locationId": "1121",
            "publicName": "Mt Gambier",
            "latitude": "-37.828971000000003",
            "longitude": "140.77656199999998",
            "postcode": "5290"
        },
        {
            "locationId": "3334",
            "publicName": "Portland K Hub",
            "latitude": "-38.344929999999998",
            "longitude": "141.60157000000001",
            "postcode": "3305"
        },
        {
            "locationId": "1109",
            "publicName": "Warrnambool",
            "latitude": "-38.381834607223297",
            "longitude": "142.52039909362799",
            "postcode": "3280"
        },
        {
            "locationId": "1037",
            "publicName": "Wendouree",
            "latitude": "-37.534012999999995",
            "longitude": "143.82487599999999",
            "postcode": "3355"
        },
        {
            "locationId": "1261",
            "publicName": "Delacombe",
            "latitude": "-37.590738600000002",
            "longitude": "143.80563759999995",
            "postcode": "3351"
        },
        {
            "locationId": "3349",
            "publicName": "Lakes Entrance K Hub",
            "latitude": "-37.881129999999999",
            "longitude": "147.98661000000001",
            "postcode": "3909"
        },
        {
            "locationId": "1269",
            "publicName": "Bairnsdale K Hub",
            "latitude": "-37.824592000000003",
            "longitude": "147.6272457",
            "postcode": "3875"
        },
        {
            "locationId": "1321",
            "publicName": "Bairnsdale",
            "latitude": "-37.836153271989261",
            "longitude": "147.59842605184957",
            "postcode": "3875"
        },
        {
            "locationId": "1292",
            "publicName": "Castlemaine K Hub",
            "latitude": "-37.065544600000003",
            "longitude": "144.2153467",
            "postcode": "3450"
        },
        {
            "locationId": "1293",
            "publicName": "Woodend K Hub",
            "latitude": "-37.355507500000002",
            "longitude": "144.5270615",
            "postcode": "3442"
        },
        {
            "locationId": "1157",
            "publicName": "Melton",
            "latitude": "-37.685986",
            "longitude": "144.56508700000001",
            "postcode": "3337"
        },
        {
            "locationId": "1043",
            "publicName": "Chirnside Park",
            "latitude": "-37.757505999999999",
            "longitude": "145.31381299999998",
            "postcode": "3116"
        },
        {
            "locationId": "1370",
            "publicName": "Craigieburn",
            "latitude": "-37.594909999999999",
            "longitude": "144.91326900000001",
            "postcode": "3064"
        },
        {
            "locationId": "1369",
            "publicName": "Epping",
            "latitude": "-37.652349600000001",
            "longitude": "145.0178458",
            "postcode": "3076"
        },
        {
            "locationId": "1191",
            "publicName": "South Morang",
            "latitude": "-37.6514028",
            "longitude": "145.07203229999999",
            "postcode": "3752"
        },
        {
            "locationId": "1014",
            "publicName": "Campbellfield",
            "latitude": "-37.688670000000002",
            "longitude": "144.959858",
            "postcode": "3061"
        },
        {
            "locationId": "1044",
            "publicName": "Greensborough",
            "latitude": "-37.703083999999997",
            "longitude": "145.10251500000001",
            "postcode": "3088"
        },
        {
            "locationId": "1262",
            "publicName": "Broadmeadows",
            "latitude": "-37.703852099999999",
            "longitude": "144.87940490000005",
            "postcode": "3047"
        },
        {
            "locationId": "1391",
            "publicName": "Reservoir",
            "latitude": "-37.725030111706708",
            "longitude": "145.02916162698364",
            "postcode": "3073"
        },
        {
            "locationId": "1161",
            "publicName": "Airport West",
            "latitude": "-37.713995000000004",
            "longitude": "144.88487800000001",
            "postcode": "3042"
        },
        {
            "locationId": "1090",
            "publicName": "Northland",
            "latitude": "-37.738227000000002",
            "longitude": "145.03016400000001",
            "postcode": "3072"
        },
        {
            "locationId": "1382",
            "publicName": "Watergardens",
            "latitude": "-37.70026",
            "longitude": "144.77377300000001",
            "postcode": "3038"
        },
        {
            "locationId": "1286",
            "publicName": "Caroline Springs",
            "latitude": "-37.733152939336343",
            "longitude": "144.74339354005286",
            "postcode": "3023"
        },
        {
            "locationId": "1138",
            "publicName": "Keilor",
            "latitude": "-37.727462000000003",
            "longitude": "144.80717799999999",
            "postcode": "3038"
        },
        {
            "locationId": "1267",
            "publicName": "Manor Lakes",
            "latitude": "-37.872962600000001",
            "longitude": "144.5599244",
            "postcode": "3024"
        },
        {
            "locationId": "1259",
            "publicName": "Tarneit",
            "latitude": "-37.838413500000009",
            "longitude": "144.69024379999996",
            "postcode": "3029"
        },
        {
            "locationId": "1171",
            "publicName": "Werribee",
            "latitude": "-37.875535000000006",
            "longitude": "144.681513",
            "postcode": "3030"
        },
        {
            "locationId": "1263",
            "publicName": "Templestowe",
            "latitude": "-37.762609599999998",
            "longitude": "145.16693229999998",
            "postcode": "3109"
        },
        {
            "locationId": "1373",
            "publicName": "Doncaster",
            "latitude": "-37.787497999999999",
            "longitude": "145.125",
            "postcode": "3108"
        },
        {
            "locationId": "1144",
            "publicName": "Eastland",
            "latitude": "-37.812468999999993",
            "longitude": "145.22891200000001",
            "postcode": "3134"
        },
        {
            "locationId": "1016",
            "publicName": "Boronia",
            "latitude": "-37.860692123010303",
            "longitude": "145.287365913391",
            "postcode": "3155"
        },
        {
            "locationId": "1164",
            "publicName": "Knox ",
            "latitude": "-37.8693992551324",
            "longitude": "145.24110317230199",
            "postcode": "3152"
        },
        {
            "locationId": "1001",
            "publicName": "Burwood",
            "latitude": "-37.853542696865297",
            "longitude": "145.14977931976298",
            "postcode": "3151"
        },
        {
            "locationId": "1111",
            "publicName": "Traralgon",
            "latitude": "-38.194029999999998",
            "longitude": "146.54087999999999",
            "postcode": "3844"
        },
        {
            "locationId": "1092",
            "publicName": "Moe",
            "latitude": "-38.174286000000002",
            "longitude": "146.25855800000002",
            "postcode": "3825"
        },
        {
            "locationId": "1284",
            "publicName": "Warragul",
            "latitude": "-38.165731899999997",
            "longitude": "145.95082740000001",
            "postcode": "3820"
        },
        {
            "locationId": "3309",
            "publicName": "Leongatha K Hub",
            "latitude": "-38.477600000000002",
            "longitude": "145.9442",
            "postcode": "3953"
        },
        {
            "locationId": "3356",
            "publicName": "Colac K Hub",
            "latitude": "-38.33925163980593",
            "longitude": "143.58574352071025",
            "postcode": "3250"
        },
        {
            "locationId": "1051",
            "publicName": "Corio",
            "latitude": "-38.075379000000005",
            "longitude": "144.35572099999999",
            "postcode": "3214"
        },
        {
            "locationId": "1206",
            "publicName": "Waurn Ponds",
            "latitude": "-38.199269999999999",
            "longitude": "144.31944399999998",
            "postcode": "3216"
        },
        {
            "locationId": "1007",
            "publicName": "Belmont VIC",
            "latitude": "-38.170203000000001",
            "longitude": "144.34963399999998",
            "postcode": "3216"
        },
        {
            "locationId": "1035",
            "publicName": "Altona",
            "latitude": "-37.828186000000002",
            "longitude": "144.84819899999999",
            "postcode": "3025"
        },
        {
            "locationId": "1233",
            "publicName": "Footscray",
            "latitude": "-37.801206842256441",
            "longitude": "144.89767899867252",
            "postcode": "3011"
        },
        {
            "locationId": "1375",
            "publicName": "Highpoint",
            "latitude": "-37.771109251529197",
            "longitude": "144.89087039646193",
            "postcode": "3032"
        },
        {
            "locationId": "1188",
            "publicName": "Moonee Ponds",
            "latitude": "-37.76614",
            "longitude": "144.92276000000001",
            "postcode": "3039"
        },
        {
            "locationId": "1384",
            "publicName": "Melbourne Cbd",
            "latitude": "-37.812532139254699",
            "longitude": "144.96620878041301",
            "postcode": "3000"
        },
        {
            "locationId": "1085",
            "publicName": "Brunswick",
            "latitude": "-37.775519000000003",
            "longitude": "144.962345",
            "postcode": "3056"
        },
        {
            "locationId": "1163",
            "publicName": "Richmond",
            "latitude": "-37.812080999999999",
            "longitude": "145.01058499999999",
            "postcode": "3121"
        },
        {
            "locationId": "1350",
            "publicName": "Camberwell",
            "latitude": "-37.8298676",
            "longitude": "145.0561467",
            "postcode": "3124"
        },
        {
            "locationId": "1136",
            "publicName": "Rowville",
            "latitude": "-37.920034000000001",
            "longitude": "145.237369",
            "postcode": "3178"
        },
        {
            "locationId": "1212",
            "publicName": "Sanctuary Lakes",
            "latitude": "-37.895107781942123",
            "longitude": "144.75301714384159",
            "postcode": "3030"
        },
        {
            "locationId": "1154",
            "publicName": "Southland",
            "latitude": "-37.958124999999995",
            "longitude": "145.051672",
            "postcode": "3192"
        },
        {
            "locationId": "1147",
            "publicName": "Chadstone",
            "latitude": "-37.886139999999997",
            "longitude": "145.08318399999999",
            "postcode": "3148"
        },
        {
            "locationId": "1226",
            "publicName": "Clayton",
            "latitude": "-37.922052800000003",
            "longitude": "145.13786490000001",
            "postcode": "3168"
        },
        {
            "locationId": "1095",
            "publicName": "Brandon Park",
            "latitude": "-37.904751000000005",
            "longitude": "145.16253799999998",
            "postcode": "3170"
        },
        {
            "locationId": "1026",
            "publicName": "Keysborough",
            "latitude": "-37.992783000000003",
            "longitude": "145.173393",
            "postcode": "3173"
        },
        {
            "locationId": "1156",
            "publicName": "Dandenong",
            "latitude": "-37.987428000000001",
            "longitude": "145.21752899999998",
            "postcode": "3175"
        },
        {
            "locationId": "1222",
            "publicName": "Carrum Downs",
            "latitude": "-38.10223914898274",
            "longitude": "145.18537303173832",
            "postcode": "3201"
        },
        {
            "locationId": "1265",
            "publicName": "Endeavour Hills",
            "latitude": "-37.9769887",
            "longitude": "145.25898819999998",
            "postcode": "3802"
        },
        {
            "locationId": "1053",
            "publicName": "Fountain Gate",
            "latitude": "-38.017635000000006",
            "longitude": "145.304024",
            "postcode": "3805"
        },
        {
            "locationId": "1361",
            "publicName": "Casey",
            "latitude": "-38.0677041",
            "longitude": "145.2979971",
            "postcode": "3805"
        },
        {
            "locationId": "1106",
            "publicName": "Cranbourne",
            "latitude": "-38.109699888907016",
            "longitude": "145.28272977168888",
            "postcode": "3977"
        },
        {
            "locationId": "1248",
            "publicName": "Leopold",
            "latitude": "-38.186480299999999",
            "longitude": "144.45440489999999",
            "postcode": "3224"
        },
        {
            "locationId": "1180",
            "publicName": "Frankston",
            "latitude": "-38.141255000000001",
            "longitude": "145.12497400000001",
            "postcode": "3199"
        },
        {
            "locationId": "1117",
            "publicName": "Rosebud",
            "latitude": "-38.361243999999999",
            "longitude": "144.891221",
            "postcode": "3939"
        },
        {
            "locationId": "1183",
            "publicName": "Hastings",
            "latitude": "-38.308498",
            "longitude": "145.19027",
            "postcode": "3915"
        },
        {
            "locationId": "1355",
            "publicName": "Wonthaggi",
            "latitude": "-38.603936300000001",
            "longitude": "145.5840771",
            "postcode": "3995"
        },
        {
            "locationId": "1040",
            "publicName": "Devonport",
            "latitude": "-41.177084000000001",
            "longitude": "146.354105",
            "postcode": "7310"
        },
        {
            "locationId": "1028",
            "publicName": "Launceston",
            "latitude": "-41.428911000000006",
            "longitude": "147.148088",
            "postcode": "7250"
        },
        {
            "locationId": "1080",
            "publicName": "Burnie",
            "latitude": "-41.051257999999997",
            "longitude": "145.90496400000001",
            "postcode": "7320"
        },
        {
            "locationId": "1061",
            "publicName": "Rosny",
            "latitude": "-42.866376000000002",
            "longitude": "147.36814100000001",
            "postcode": "7018"
        },
        {
            "locationId": "1009",
            "publicName": "New Town",
            "latitude": "-42.855811000000003",
            "longitude": "147.30484000000001",
            "postcode": "7008"
        }
    ]
}
